#aV2011 12  4  0  0   .00000000      96 DD+AD WGS84 FIT  NGA
## 1665       .00000000   900.00000000 55899  .0000000000000
+   31     1  2  3  4  5  6  7  8  9 10 11 12 13 14 15 16 17
+         18 19 20 21 22 23 25 26 27 28 29 30 31 32  0  0  0
+          0  0  0  0  0  0  0  0  0  0  0  0  0  0  0  0  0
+          0  0  0  0  0  0  0  0  0  0  0  0  0  0  0  0  0
+          0  0  0  0  0  0  0  0  0  0  0  0  0  0  0  0  0
++         0  0  0  0  0  0  0  0  0  0  0  0  0  0  0  0  0
++         0  0  0  0  0  0  0  0  0  0  0  0  0  0  0  0  0
++         0  0  0  0  0  0  0  0  0  0  0  0  0  0  0  0  0
++         0  0  0  0  0  0  0  0  0  0  0  0  0  0  0  0  0
++         0  0  0  0  0  0  0  0  0  0  0  0  0  0  0  0  0
%c cc cc ccc ccc cccc cccc cccc cccc ccccc ccccc ccccc ccccc
%c cc cc ccc ccc cccc cccc cccc cccc ccccc ccccc ccccc ccccc
%f  0.0000000  0.000000000  0.00000000000  0.000000000000000
%f  0.0000000  0.000000000  0.00000000000  0.000000000000000
%i    0    0    0    0      0      0      0      0         0
%i    0    0    0    0      0      0      0      0         0
/*      NGA, ST. LOUIS,MO.                                  
/*   EPHEMERIS COMPUTED FROM  3 DAYS OF DATA                
/* CCCCCCCCCCCCCCCCCCCCCCCCCCCCCCCCCCCCCCCCCCCCCCCCCCCCCCCCC
/* CCCCCCCCCCCCCCCCCCCCCCCCCCCCCCCCCCCCCCCCCCCCCCCCCCCCCCCCC
*  2011 12  4  9 45   .00000000                                                 
P  1   8971.564656 -20126.887990 -14839.300729    126.503697                    
V  1  16141.964674  -9896.972934  23215.903720       .177827                    
P  2 -22352.703999  12748.000074  -5319.200893    368.638141                    
V  2   3072.745326  -7354.302423 -30577.440983       .017507                    
P  3  13030.014732 -10044.785900  20350.386563    803.676859                    
V  3   8067.105941  25841.907993   7712.247541       .051739                    
P  4 -21523.845931   1759.410980 -15915.773541     23.038995                    
V  4  14367.444296 -13661.321354 -20926.764772       .113172                    
P  5 -18557.788037   6175.350202  18002.878771   -253.522047                    
V  5 -20516.435151 -10265.315326 -17487.716544      -.048861                    
P  6  15048.764958  -5104.566725  21399.178498     11.086646                    
V  6   5392.561992  26432.677363   2789.216885       .046119                    
P  7  -5308.657996 -14373.020529  21687.605828     41.202666                    
V  7  22321.047908 -16032.591419  -5402.480462       .022942                    
P  8 -15198.018914  -6465.385567  20997.119902       .169957                    
V  8  22101.617323 -14241.067223  11089.422843       .000869                    
P  9 -12145.742310  20296.641923 -12652.965218    122.679406                    
V  9 -12848.787642   8170.246557  26574.389871       .025635                    
P 10 -24971.698795  -9389.425506   2041.763026    -21.071312                    
V 10  -1440.707946  -3799.682874 -31067.070760      -.012930                    
P 11  10567.199670 -23242.276196  -7044.405029   -209.959164                    
V 11   9249.494135  -3864.655112  28428.601180      -.035628                    
P 12  -1665.729109  15239.467989 -21699.993247     38.578042                    
V 12 -25298.265948 -10786.983451  -5461.841128       .022584                    
P 13  -4926.399219 -25368.703220   5810.718042    238.088297                    
V 13   1654.022610  -7629.349759 -31256.893261      -.020422                    
P 14  13922.025946  11045.915833 -19608.540739    184.231537                    
V 14    766.315534  25193.153976  14465.817821       .017084                    
P 15  -5438.532074  22834.538427  12246.306350    -97.611949                    
V 15  -5117.053894 -15044.153410  25983.690636       .009593                    
P 16  19302.201879  -4331.008582  17880.904145   -212.203341                    
V 16  19965.048882  10478.201055 -18740.857121      -.019357                    
P 17 -14199.789217 -12612.180640 -18514.362275    162.382414                    
V 17   -937.706878 -23755.062537  16527.606673      -.020299                    
P 18  16751.885912  17098.963285  12226.786365    170.208200                    
V 18 -14792.988537  -3403.075763  25382.569625       .018345                    
P 19   8956.406839 -20476.138087  14030.291919   -211.589767                    
V 19   3231.347643  17900.179057  24363.640610      -.039628                    
P 20    825.765347 -16370.650362 -21066.038489     57.339438                    
V 20  25081.328672   8552.694591  -5632.355373       .007609                    
P 21  10446.540033  12237.292075  21589.151633   -188.666894                    
V 21 -21244.758813  15819.190903    739.120886      -.024597                    
P 22  24599.443379  10140.924388   -673.548406    143.249998                    
V 22   -507.391106   3833.681669  30952.908200      -.001038                    
P 23    -57.249889 -26010.361103  -4289.766942    253.829530                    
V 23   3657.132855   5144.278785 -31393.520917      -.032846                    
P 25   9721.074765  17166.554014 -17821.158605     29.377691                    
V 25 -21487.411138  -7025.059593 -18477.789462       .008369                    
P 26 -12287.383450  12228.578046  19399.554532   -249.147257                    
V 26  -2518.589407 -25925.267756  14684.230019      -.137268                    
P 27 -17403.319704  18920.336915  -5090.390389    332.275614                    
V 27  -7274.844987   2754.578051  31600.370943       .038818                    
P 28 -23187.029606 -13025.462191   2848.548981     90.008241                    
V 28   3514.525495   -599.392725  31686.306718       .035005                    
P 29   5705.792998  25502.601537   4921.330367    263.055007                    
V 29  -2107.775226   6373.753254 -30944.212540       .034023                    
P 30  25033.376261   1362.096164   8437.063986     32.588685                    
V 30   9949.114782   5878.337316 -29180.945533      -.106719                    
P 31  22271.381277  -5324.840040 -13435.961549    177.981638                    
V 31 -12893.715214  11630.779677 -25374.507097       .050467                    
P 32   9510.820573 -12132.929051 -21352.710708   -371.852147                    
V 32  24345.559731  13335.776831   3679.789567      -.059193                    
EOF
